{
  "type": "FeatureCollection",
  "features": [
    {
      "type": "Feature",
      "properties": {
        "norad_id": 33887,
        "name": "IRIDIUM 33 DEB",
        "group": "iridium-33-debris",
        "lat": -83.60898432409255,
        "lon": -37.63384251956569,
        "alt_km": 775.760368672165,
        "timestamp": "2025-12-26T03:50:12.478460+00:00",
        "meta_object_name": "IRIDIUM 33 DEB",
        "meta_object_id": "1997-051BG",
        "meta_epoch": "2025-12-25T01:50:13.201152",
        "meta_mean_motion": 14.37231733,
        "meta_eccentricity": 0.00057849,
        "meta_inclination": 86.3043,
        "meta_ra_of_asc_node": 358.0753,
        "meta_arg_of_pericenter": 179.6912,
        "meta_mean_anomaly": 253.8578,
        "meta_ephemeris_type": 0,
        "meta_classification_type": "U",
        "meta_norad_cat_id": 33887,
        "meta_element_set_no": 999,
        "meta_rev_at_epoch": 88342,
        "meta_bstar": 0.00014791728,
        "meta_mean_motion_dot": 4.6e-06,
        "meta_mean_motion_ddot": 0,
        "tle_line1": "1 33887U 97051BG  25359.07654168  .00000460  00000+0  14792-3 0  9997",
        "tle_line2": "2 33887  86.3043 358.0753 0005784 179.6912 253.8578 14.37231733883422"
      },
      "geometry": {
        "type": "Point",
        "coordinates": [
          -37.63384251956569,
          -83.60898432409255
        ]
      }
    },
    {
      "type": "Feature",
      "properties": {
        "norad_id": 33953,
        "name": "IRIDIUM 33 DEB",
        "group": "iridium-33-debris",
        "lat": -73.13361961578956,
        "lon": 35.911876441701544,
        "alt_km": 724.080974475838,
        "timestamp": "2025-12-26T03:50:12.478471+00:00",
        "meta_object_name": "IRIDIUM 33 DEB",
        "meta_object_id": "1997-051BN",
        "meta_epoch": "2025-12-25T15:33:55.183968",
        "meta_mean_motion": 14.55441742,
        "meta_eccentricity": 0.001753,
        "meta_inclination": 86.3832,
        "meta_ra_of_asc_node": 48.1755,
        "meta_arg_of_pericenter": 63.1805,
        "meta_mean_anomaly": 66.1443,
        "meta_ephemeris_type": 0,
        "meta_classification_type": "U",
        "meta_norad_cat_id": 33953,
        "meta_element_set_no": 999,
        "meta_rev_at_epoch": 88491,
        "meta_bstar": 0.0011189,
        "meta_mean_motion_dot": 4.893e-05,
        "meta_mean_motion_ddot": 0,
        "tle_line1": "1 33953U 97051BN  25359.64855537  .00004893  00000+0  11189-2 0  9997",
        "tle_line2": "2 33953  86.3832  48.1755 0017530  63.1805  66.1443 14.55441742884915"
      },
      "geometry": {
        "type": "Point",
        "coordinates": [
          35.911876441701544,
          -73.13361961578956
        ]
      }
    },
    {
      "type": "Feature",
      "properties": {
        "norad_id": 33960,
        "name": "IRIDIUM 33 DEB",
        "group": "iridium-33-debris",
        "lat": 74.76144763306561,
        "lon": 89.26671706577632,
        "alt_km": 601.8605490142954,
        "timestamp": "2025-12-26T03:50:12.478482+00:00",
        "meta_object_name": "IRIDIUM 33 DEB",
        "meta_object_id": "1997-051BV",
        "meta_epoch": "2025-12-25T19:31:33.400128",
        "meta_mean_motion": 14.85848128,
        "meta_eccentricity": 0.0007078,
        "meta_inclination": 86.2535,
        "meta_ra_of_asc_node": 283.3484,
        "meta_arg_of_pericenter": 39.5343,
        "meta_mean_anomaly": 14.0569,
        "meta_ephemeris_type": 0,
        "meta_classification_type": "U",
        "meta_norad_cat_id": 33960,
        "meta_element_set_no": 999,
        "meta_rev_at_epoch": 89061,
        "meta_bstar": 0.0032209,
        "meta_mean_motion_dot": 0.00028154,
        "meta_mean_motion_ddot": 0,
        "tle_line1": "1 33960U 97051BV  25359.81358102  .00028154  00000+0  32209-2 0  9992",
        "tle_line2": "2 33960  86.2535 283.3484 0007078  39.5343  14.0569 14.85848128890611"
      },
      "geometry": {
        "type": "Point",
        "coordinates": [
          89.26671706577632,
          74.76144763306561
        ]
      }
    },
    {
      "type": "Feature",
      "properties": {
        "norad_id": 33966,
        "name": "IRIDIUM 33 DEB",
        "group": "iridium-33-debris",
        "lat": 45.3120520595382,
        "lon": -143.39117073268625,
        "alt_km": 716.8908071716742,
        "timestamp": "2025-12-26T03:50:12.478493+00:00",
        "meta_object_name": "IRIDIUM 33 DEB",
        "meta_object_id": "1997-051CB",
        "meta_epoch": "2025-12-25T12:53:56.995008",
        "meta_mean_motion": 14.49641936,
        "meta_eccentricity": 0.0008794,
        "meta_inclination": 86.391,
        "meta_ra_of_asc_node": 40.5342,
        "meta_arg_of_pericenter": 148.7203,
        "meta_mean_anomaly": 339.7416,
        "meta_ephemeris_type": 0,
        "meta_classification_type": "U",
        "meta_norad_cat_id": 33966,
        "meta_element_set_no": 999,
        "meta_rev_at_epoch": 88627,
        "meta_bstar": 0.00048825,
        "meta_mean_motion_dot": 1.896e-05,
        "meta_mean_motion_ddot": 0,
        "tle_line1": "1 33966U 97051CB  25359.53746522  .00001896  00000+0  48825-3 0  9990",
        "tle_line2": "2 33966  86.3910  40.5342 0008794 148.7203 339.7416 14.49641936886278"
      },
      "geometry": {
        "type": "Point",
        "coordinates": [
          -143.39117073268625,
          45.3120520595382
        ]
      }
    },
    {
      "type": "Feature",
      "properties": {
        "norad_id": 34071,
        "name": "IRIDIUM 33 DEB",
        "group": "iridium-33-debris",
        "lat": -15.01514522585416,
        "lon": -167.02344877542814,
        "alt_km": 735.8272806119339,
        "timestamp": "2025-12-26T03:50:12.478504+00:00",
        "meta_object_name": "IRIDIUM 33 DEB",
        "meta_object_id": "1997-051CE",
        "meta_epoch": "2025-12-25T18:39:26.278272",
        "meta_mean_motion": 14.4952139,
        "meta_eccentricity": 0.0009824,
        "meta_inclination": 86.3452,
        "meta_ra_of_asc_node": 12.1604,
        "meta_arg_of_pericenter": 73.0032,
        "meta_mean_anomaly": 287.2248,
        "meta_ephemeris_type": 0,
        "meta_classification_type": "U",
        "meta_norad_cat_id": 34071,
        "meta_element_set_no": 999,
        "meta_rev_at_epoch": 88523,
        "meta_bstar": 0.00062869,
        "meta_mean_motion_dot": 2.43e-05,
        "meta_mean_motion_ddot": 0,
        "tle_line1": "1 34071U 97051CE  25359.77738748  .00002430  00000+0  62869-3 0  9994",
        "tle_line2": "2 34071  86.3452  12.1604 0009824  73.0032 287.2248 14.49521390885234"
      },
      "geometry": {
        "type": "Point",
        "coordinates": [
          -167.02344877542814,
          -15.01514522585416
        ]
      }
    },
    {
      "type": "Feature",
      "properties": {
        "norad_id": 34077,
        "name": "IRIDIUM 33 DEB",
        "group": "iridium-33-debris",
        "lat": 60.85727391687245,
        "lon": 52.105522333639065,
        "alt_km": 668.7277630977014,
        "timestamp": "2025-12-26T03:50:12.478516+00:00",
        "meta_object_name": "IRIDIUM 33 DEB",
        "meta_object_id": "1997-051CL",
        "meta_epoch": "2025-12-25T15:09:22.159872",
        "meta_mean_motion": 14.64997982,
        "meta_eccentricity": 0.0008673,
        "meta_inclination": 86.3846,
        "meta_ra_of_asc_node": 45.8272,
        "meta_arg_of_pericenter": 357.0733,
        "meta_mean_anomaly": 159.1877,
        "meta_ephemeris_type": 0,
        "meta_classification_type": "U",
        "meta_norad_cat_id": 34077,
        "meta_element_set_no": 999,
        "meta_rev_at_epoch": 88521,
        "meta_bstar": 0.0015833,
        "meta_mean_motion_dot": 8.51e-05,
        "meta_mean_motion_ddot": 0,
        "tle_line1": "1 34077U 97051CL  25359.63150648  .00008510  00000+0  15833-2 0  9995",
        "tle_line2": "2 34077  86.3846  45.8272 0008673 357.0733 159.1877 14.64997982885219"
      },
      "geometry": {
        "type": "Point",
        "coordinates": [
          52.105522333639065,
          60.85727391687245
        ]
      }
    },
    {
      "type": "Feature",
      "properties": {
        "norad_id": 34079,
        "name": "IRIDIUM 33 DEB",
        "group": "iridium-33-debris",
        "lat": -58.816226081134076,
        "lon": -171.43518902696476,
        "alt_km": 623.7360341986805,
        "timestamp": "2025-12-26T03:50:12.478527+00:00",
        "meta_object_name": "IRIDIUM 33 DEB",
        "meta_object_id": "1997-051CN",
        "meta_epoch": "2025-12-25T12:46:07.398048",
        "meta_mean_motion": 14.83867187,
        "meta_eccentricity": 0.0003997,
        "meta_inclination": 86.3777,
        "meta_ra_of_asc_node": 2.8424,
        "meta_arg_of_pericenter": 319.4586,
        "meta_mean_anomaly": 167.865,
        "meta_ephemeris_type": 0,
        "meta_classification_type": "U",
        "meta_norad_cat_id": 34079,
        "meta_element_set_no": 999,
        "meta_rev_at_epoch": 89167,
        "meta_bstar": 0.0019274,
        "meta_mean_motion_dot": 0.00016035,
        "meta_mean_motion_ddot": 0,
        "tle_line1": "1 34079U 97051CN  25359.53203007  .00016035  00000+0  19274-2 0  9998",
        "tle_line2": "2 34079  86.3777   2.8424 0003997 319.4586 167.8650 14.83867187891674"
      },
      "geometry": {
        "type": "Point",
        "coordinates": [
          -171.43518902696476,
          -58.816226081134076
        ]
      }
    }
  ]
}